[{"OBJECT_NAME":"GEESAT-1 09","OBJECT_ID":"2022-058J","EPOCH":"2026-03-09T22:14:58.178400","MEAN_MOTION":14.996745,"ECCENTRICITY":0.0007116,"INCLINATION":49.9974,"RA_OF_ASC_NODE":293.7726,"ARG_OF_PERICENTER":137.6611,"MEAN_ANOMALY":222.4884,"EPHEMERIS_TYPE":0,"CLASSIFICATION_TYPE":"U","NORAD_CAT_ID":52793,"ELEMENT_SET_NO":999,"REV_AT_EPOCH":20534,"BSTAR":0.00045554765,"MEAN_MOTION_DOT":5.429e-5,"MEAN_MOTION_DDOT":0},{"OBJECT_NAME":"COSMOS 374 DEB","OBJECT_ID":"1970-089H","EPOCH":"2026-03-09T12:27:41.883264","MEAN_MOTION":13.59474503,"ECCENTRICITY":0.06426222,"INCLINATION":62.9221,"RA_OF_ASC_NODE":68.1933,"ARG_OF_PERICENTER":199.9559,"MEAN_ANOMALY":157.5262,"EPHEMERIS_TYPE":0,"CLASSIFICATION_TYPE":"U","NORAD_CAT_ID":4621,"ELEMENT_SET_NO":999,"REV_AT_EPOCH":66798,"BSTAR":0.00036640968,"MEAN_MOTION_DOT":9.73e-6,"MEAN_MOTION_DDOT":0}]
